ASTROCAST-0403          
1 55111U 23001DG  26068.82333059  .00013959  00000+0  51317-3 0  9990
2 55111  97.5604 161.3228 0004771 338.0704  22.0330 15.28004949129377
STARLINK-30105          
1 57433U 23105D   26068.28525767  .00000208  00000+0  17084-4 0  9990
2 57433  43.0064  33.1157 0001077 264.5620  95.5109 15.27578600148262
